#dP2023  4 21  0  0  0.00000000      96 __u+U ITR00 EXT  IAC
## 2258 432000.00000000   900.00000000 60055 0.0000000000000
+  119   C06C07C08C09C10C11C12C13C14C16C19C20C21C22C23C24C25
+        C26C27C28C29C30C32C33C34C35C36C37C38C39C40C41C42C43
+        C44C45C46E01E02E03E04E05E07E08E10E11E12E13E14E15E18
+        E19E21E24E25E26E27E30E31E33E34E36G01G02G03G04G05G06
+        G07G08G09G10G11G12G13G14G15G16G17G18G19G20G21G22G23
+        G24G25G26G27G28G29G30G31G32J02J03J04R01R02R03R04R05
+        R07R08R09R11R12R13R14R15R16R17R18R19R20R21R22R24R25
++         0  0  0  0  0  0  0  0  0  0  0  0  0  0  0  0  0
++         0  0  0  0  0  0  0  0  0  0  0  0  0  0  0  0  0
++         0  0  0  0  0  0  0  0  0  0  0  0  0  0  0  0  0
++         0  0  0  0  0  0  0  0  0  0  0  0  0  0  0  0  0
++         0  0  0  0  0  0  0  0  0  0  0  0  0  0  0  0  0
++         0  0  0  0  0  0  0  0  0  0  0  0  0  0  0  0  0
++         0  0  0  0  0  0  0  0  0  0  0  0  0  0  0  0  0
%c M  cc GPS ccc cccc cccc cccc cccc ccccc ccccc ccccc ccccc
%c cc cc ccc ccc cccc cccc cccc cccc ccccc ccccc ccccc ccccc
%f  0.0000000  0.000000000  0.00000000000  0.000000000000000
%f  0.0000000  0.000000000  0.00000000000  0.000000000000000
%i    0    0    0    0      0      0      0      0         0
%i    0    0    0    0      0      0      0      0         0
/* IAC                                ULTRA-RAPID PREDICTION
/* S/V CLOCKS ARE ALIGNED TO GNSS TIME                      
/* G:C1WC2W R:C1PC2P E:C1XC5X C:C2IC6I J:C1CC2S             
/* PCV:IGS20_2247 OL/AL:FES2004  NONE     YN ORB:CoN CLK:CoN
*  2023 04 21  2 45  0.00000000
PC06 -11433.287495  40353.790268  -2519.863655   -196.527631
PC07  -5083.301652  28530.102883  30707.962916     97.493507
PC08 -18392.420748  23814.364215 -29617.586659    501.240984
PC09  -5773.851528  40802.284965   7845.252732    743.474660
PC10   3757.341516  31768.862409  27983.807400    -38.440658
PC11   7390.117609 -25342.414486  -8965.083404    311.878896
PC12  14727.345946  -9818.627995 -21540.913327    585.605934
PC13 -10643.379285  24963.875881 -32197.238267    257.436985
PC14   5208.761981 -15164.284527  22857.031817    151.374322
PC16 -12989.909422  39537.303454  -5456.619536    103.036165
PC19   5188.313911  18941.026545 -19805.545606   -902.796842
PC20 -12917.858010  10129.555246 -22543.104900    613.881492
PC21  24676.169320   5583.386550  11830.706657   -910.732656
PC22  21193.450009  17323.768178  -5512.481314   -525.768950
PC23 -12710.522945 -11248.419715 -22149.021597   -910.183890
PC24  22578.771066 -15811.457725  -4292.721520   -146.476606
PC25   5529.053112 -19274.460553 -19410.242387    110.850238
PC26  24909.240197  -4712.213649  11613.310359   -109.240012
PC27 -15930.170181     62.495386  22888.708935    128.685320
PC28 -11396.221459 -18666.704832  17334.236858     94.860249
PC29    286.992222  27900.687581   -279.593537    109.924331
PC30 -11454.727806  19362.491782  16484.611051      0.268223
PC32 -24709.415434  -5450.770146 -11726.530246   -575.268862
PC33  -5124.650140 -18901.128110  19881.718659   -874.850866
PC34  10899.978293 -20452.711029 -15577.426896    153.522206
PC35  11757.325062  18961.558306 -16751.623910    642.217639
PC36  -6751.199430  19271.357881  19043.350596   -488.395048
PC37 -24689.539889   3153.767024 -12630.511211   -788.190345
PC38 -25210.073133  25102.780206 -22700.335892     73.151172
PC39 -14241.495672  37747.781266 -11811.316587     -2.638837
PC40  -7814.042976  23423.916192  34200.013425    -20.953455
PC41 -20808.450041 -17532.303069   6223.895461   -877.244877
PC42  14197.423259  -9222.944301  22238.065081   -727.305489
PC43    349.890890 -27912.578639   -555.497970     17.688407
PC44  16080.217080   -478.961399 -22818.633085     82.410847
PC45  13057.055479  10857.256095  22139.523770    -87.714702
PC46 -21777.308491  16490.533085   5797.315848    -48.478857
PE01 -27250.223441   5431.189622  10205.603332      3.581300
PE02  27013.912937  -5742.026562 -10638.260517     33.572704
PE03  15577.264655  -6924.785555  24203.241288   -671.273880
PE04  -2111.332949  23494.553732 -17868.324890   -105.149448
PE05  20184.156873  14121.089223  16424.663773    -74.805142
PE07 -12768.660901 -26676.733059   1084.284105    -39.177740
PE08   2204.023362 -23291.300643  18133.473388    -70.706837
PE10  -5833.366679  25527.468954 -13808.308204   -528.004636
PE11   3021.195903  20504.134273 -21137.260818   1675.601836
PE12 -13015.525171  26093.830565  -5014.871859   -506.985249
PE13  -2298.263381 -21017.941215  20722.401492    -18.705053
PE14  22464.452220   7777.802609 -21708.937817    203.041895
PE15  13221.208215 -26076.491342   4674.707680    -16.078697
PE18 -15323.682808   3269.163117  18510.573143   -141.500056
PE19 -16744.141675   3961.928057 -24071.314991  -2716.664950
PE21 -28034.293379  -6374.143665  -7055.545872   -524.586780
PE24  12025.481529  15817.939310  21915.059587    -55.755891
PE25  27903.554629   6577.159599   7361.854028   -603.663410
PE26 -16819.039165  -3010.549551  24170.612861     81.343538
PE27 -12920.746063 -15551.673054 -21624.574764    -30.228481
PE30  10340.844022 -15343.704869 -23115.311149   -109.804436
PE31  -9656.476263  15478.439052  23312.169532   -521.855718
PE33 -20813.857524  15688.567516  14014.687509   -445.839907
PE34  20781.804133 -15860.834210 -13890.623509    -41.312942
PE36  16292.345913   3698.509637 -24437.209676    -44.473758
PG01 -13857.564485  22233.105105  -3285.977646    191.540795
PG02  -1530.482262 -20670.009145  17376.407373   -604.007188
PG03 -10369.932418  13029.565294 -20789.483575   -324.142846
PG04  -3057.205225  21194.546993 -15627.430696     21.914673
PG05  24021.933244  -5555.723608   9859.892997   -124.199991
PG06  13043.313960   6743.069941 -22075.291872    587.410124
PG07  -2005.904694  21603.023495  15433.604275    196.657211
PG08 -11395.841560  10783.687463  21311.092084   -118.743876
PG09   6338.560595  24801.578900  -7066.107159   -175.667496
PG10 -19938.233075 -11307.386904  13858.160315    -33.699490
PG11  19880.583337  -7030.706902 -16119.864358   -169.495949
PG12  13656.055496 -11602.337654 -19856.579895   -366.463267
PG13  14812.197252  -2509.124537  21736.587144    508.772858
PG14  17132.813779  13361.367841  15382.595530     31.522725
PG15  10000.144931 -12755.151559  20550.049206     32.490518
PG16 -25694.873141    269.986372   7284.228728   -507.297903
PG17  13153.014490  21886.706573  -6683.315142    711.533609
PG18   -166.288591 -19800.147636  17629.055719   -233.180778
PG19  15943.781211  15189.380285 -15284.774144    306.432058
PG20  26385.260189  -1893.379809    110.395299    437.880999
PG21 -16970.507678  18703.920022   7184.751841    154.146965
PG22 -16540.338649 -12048.153131 -16570.904781    467.822974
PG23  -8366.707372 -14619.646267  20577.180538     18.292160
PG24  14483.717419 -21887.446744   1753.255525   -159.655997
PG25   1140.892268 -15479.922603 -21869.254126    437.148955
PG26 -25704.166878  -4946.255458  -5588.224878    241.593877
PG27 -16384.656688  -1599.429202  20682.490509     54.349992
PG28 -12478.212960  -8686.316938 -21804.053423     68.178437
PG29  -1480.321787 -24423.308526 -10286.088820   -596.360346
PG30   8248.099408  14539.741183  20696.774365   -521.344177
PG31 -17601.865465   -370.064627 -20190.816816   -214.433753
PG32 -15892.769809 -19350.669229  -8971.743881   -456.897155
PJ02 -29349.749044  23247.047301  24431.455248     -1.597022
PJ03 -30362.921547  26339.091145  17778.580893      2.658194
PJ04 -26668.722072  19767.737273 -20817.680096     94.234398
PR01  19450.143848  16517.665216     29.439021     27.061822
PR02  18085.916428   5620.736812  17104.380719    -22.929478
PR03   6618.810811  -8725.625850  23090.214746     76.396175
PR04  -8252.308262 -17792.591737  16349.544479    184.127097
PR05 -18616.526311 -17441.437585    695.793187    111.297640
PR07  -5982.298288   9218.004063 -22971.325249     54.265331
PR08   8507.505543  17832.882300 -16052.268003    -70.429718
PR09 -24179.362999   5739.957021  -5551.949184    115.861554
PR11  -4162.424814  12410.227677  21898.588459    -39.984240
PR12  15254.860709   4911.444908  19862.252080     26.608806
PR13  23974.017160  -4581.419781   7392.889977    -34.201400
PR14  19059.511792 -12423.156887 -11545.687751     24.578917
PR15   2995.962939 -12223.757082 -22171.208643     89.696372
PR16 -14952.871338  -4846.585511 -20071.799501     13.749747
PR17   9707.106406 -20726.303784 -11225.712858    623.046504
PR18   3141.012546 -24775.399529   5350.556391     77.582757
PR19  -3986.791691 -17264.511071  18346.918810   -229.812593
PR20 -11285.360359   3615.071422  22584.547135    -91.498903
PR21  -9331.295198  21662.325087   9732.454548     -1.556773
PR22  -3443.398318  24497.105255  -6160.635579     80.250146
PR24  11685.973208  -4619.972421 -22184.354367    163.633034
PR25 -10864.896597  20116.280966  11330.077522     62.989615
EOF
